CCSDS_OMM_VERS = 2.0
CREATION_DATE  = 
ORIGINATOR     = 

OBJECT_NAME    = HULIANWANG DIGUI-122
OBJECT_ID      = 2025-295D
CENTER_NAME    = EARTH
REF_FRAME      = TEME
TIME_SYSTEM    = UTC
MEAN_ELEMENT_THEORY = SGP/SGP4

EPOCH          = 2025-12-22T12:22:28.155360
MEAN_MOTION    = 14.25756870
ECCENTRICITY   = .00131646
INCLINATION    = 50.0053
RA_OF_ASC_NODE = 330.9585
ARG_OF_PERICENTER = 287.8083
MEAN_ANOMALY   = 72.1394

EPHEMERIS_TYPE = 0
CLASSIFICATION_TYPE = U
NORAD_CAT_ID   = 67062
ELEMENT_SET_NO = 999
REV_AT_EPOCH   = 151
BSTAR          = .70244718E-4
MEAN_MOTION_DOT = .8E-7
MEAN_MOTION_DDOT = 0

CCSDS_OMM_VERS = 2.0
CREATION_DATE  = 
ORIGINATOR     = 

OBJECT_NAME    = HULIANWANG DIGUI-123
OBJECT_ID      = 2025-295E
CENTER_NAME    = EARTH
REF_FRAME      = TEME
TIME_SYSTEM    = UTC
MEAN_ELEMENT_THEORY = SGP/SGP4

EPOCH          = 2025-12-22T10:40:08.385600
MEAN_MOTION    = 14.25889752
ECCENTRICITY   = .0012474
INCLINATION    = 50.0059
RA_OF_ASC_NODE = 331.2518
ARG_OF_PERICENTER = 286.7560
MEAN_ANOMALY   = 73.1985

EPHEMERIS_TYPE = 0
CLASSIFICATION_TYPE = U
NORAD_CAT_ID   = 67063
ELEMENT_SET_NO = 999
REV_AT_EPOCH   = 150
BSTAR          = .78854749E-4
MEAN_MOTION_DOT = .29E-6
MEAN_MOTION_DDOT = 0

CCSDS_OMM_VERS = 2.0
CREATION_DATE  = 
ORIGINATOR     = 

OBJECT_NAME    = HULIANWANG DIGUI-124
OBJECT_ID      = 2025-295F
CENTER_NAME    = EARTH
REF_FRAME      = TEME
TIME_SYSTEM    = UTC
MEAN_ELEMENT_THEORY = SGP/SGP4

EPOCH          = 2025-12-22T05:36:45.096192
MEAN_MOTION    = 14.25948838
ECCENTRICITY   = .00121422
INCLINATION    = 50.0035
RA_OF_ASC_NODE = 332.1235
ARG_OF_PERICENTER = 280.5756
MEAN_ANOMALY   = 79.3790

EPHEMERIS_TYPE = 0
CLASSIFICATION_TYPE = U
NORAD_CAT_ID   = 67064
ELEMENT_SET_NO = 999
REV_AT_EPOCH   = 147
BSTAR          = -.21789546E-3
MEAN_MOTION_DOT = -.684E-5
MEAN_MOTION_DDOT = 0

CCSDS_OMM_VERS = 2.0
CREATION_DATE  = 
ORIGINATOR     = 

OBJECT_NAME    = HULIANWANG DIGUI-125
OBJECT_ID      = 2025-295G
CENTER_NAME    = EARTH
REF_FRAME      = TEME
TIME_SYSTEM    = UTC
MEAN_ELEMENT_THEORY = SGP/SGP4

EPOCH          = 2025-12-22T10:39:27.019008
MEAN_MOTION    = 14.25955320
ECCENTRICITY   = .00122643
INCLINATION    = 50.0010
RA_OF_ASC_NODE = 331.2331
ARG_OF_PERICENTER = 287.4832
MEAN_ANOMALY   = 72.4742

EPHEMERIS_TYPE = 0
CLASSIFICATION_TYPE = U
NORAD_CAT_ID   = 67065
ELEMENT_SET_NO = 999
REV_AT_EPOCH   = 150
BSTAR          = .74486098E-4
MEAN_MOTION_DOT = .19E-6
MEAN_MOTION_DDOT = 0

CCSDS_OMM_VERS = 2.0
CREATION_DATE  = 
ORIGINATOR     = 

OBJECT_NAME    = HULIANWANG DIGUI-126
OBJECT_ID      = 2025-295H
CENTER_NAME    = EARTH
REF_FRAME      = TEME
TIME_SYSTEM    = UTC
MEAN_ELEMENT_THEORY = SGP/SGP4

EPOCH          = 2025-12-22T10:37:55.028064
MEAN_MOTION    = 14.26098288
ECCENTRICITY   = .00114245
INCLINATION    = 50.0013
RA_OF_ASC_NODE = 331.2267
ARG_OF_PERICENTER = 284.6137
MEAN_ANOMALY   = 75.3510

EPHEMERIS_TYPE = 0
CLASSIFICATION_TYPE = U
NORAD_CAT_ID   = 67066
ELEMENT_SET_NO = 999
REV_AT_EPOCH   = 150
BSTAR          = .74112863E-4
MEAN_MOTION_DOT = .18E-6
MEAN_MOTION_DDOT = 0

CCSDS_OMM_VERS = 2.0
CREATION_DATE  = 
ORIGINATOR     = 

OBJECT_NAME    = HULIANWANG DIGUI-127
OBJECT_ID      = 2025-295J
CENTER_NAME    = EARTH
REF_FRAME      = TEME
TIME_SYSTEM    = UTC
MEAN_ELEMENT_THEORY = SGP/SGP4

EPOCH          = 2025-12-22T10:36:26.242560
MEAN_MOTION    = 14.26251076
ECCENTRICITY   = .00108506
INCLINATION    = 50.0053
RA_OF_ASC_NODE = 331.2291
ARG_OF_PERICENTER = 288.5786
MEAN_ANOMALY   = 71.3949

EPHEMERIS_TYPE = 0
CLASSIFICATION_TYPE = U
NORAD_CAT_ID   = 67067
ELEMENT_SET_NO = 999
REV_AT_EPOCH   = 150
BSTAR          = -.29541696E-3
MEAN_MOTION_DOT = -.874E-5
MEAN_MOTION_DDOT = 0

CCSDS_OMM_VERS = 2.0
CREATION_DATE  = 
ORIGINATOR     = 

OBJECT_NAME    = CZ-12 R/B
OBJECT_ID      = 2025-295K
CENTER_NAME    = EARTH
REF_FRAME      = TEME
TIME_SYSTEM    = UTC
MEAN_ELEMENT_THEORY = SGP/SGP4

EPOCH          = 2025-12-22T06:21:47.179296
MEAN_MOTION    = 14.41129057
ECCENTRICITY   = .00568753
INCLINATION    = 49.9943
RA_OF_ASC_NODE = 330.9614
ARG_OF_PERICENTER = 170.0480
MEAN_ANOMALY   = 190.1581

EPHEMERIS_TYPE = 0
CLASSIFICATION_TYPE = U
NORAD_CAT_ID   = 67068
ELEMENT_SET_NO = 999
REV_AT_EPOCH   = 148
BSTAR          = .8294878E-5
MEAN_MOTION_DOT = -.141E-5
MEAN_MOTION_DDOT = 0

CCSDS_OMM_VERS = 2.0
CREATION_DATE  = 
ORIGINATOR     = 

OBJECT_NAME    = XIWANG-5 02
OBJECT_ID      = 2025-296A
CENTER_NAME    = EARTH
REF_FRAME      = TEME
TIME_SYSTEM    = UTC
MEAN_ELEMENT_THEORY = SGP/SGP4

EPOCH          = 2025-12-22T13:53:22.183008
MEAN_MOTION    = 15.16868050
ECCENTRICITY   = .00145046
INCLINATION    = 41.3524
RA_OF_ASC_NODE = 45.4520
ARG_OF_PERICENTER = 96.0843
MEAN_ANOMALY   = 264.1632

EPHEMERIS_TYPE = 0
CLASSIFICATION_TYPE = U
NORAD_CAT_ID   = 67069
ELEMENT_SET_NO = 999
REV_AT_EPOCH   = 145
BSTAR          = .63198464E-3
MEAN_MOTION_DOT = .12532E-3
MEAN_MOTION_DDOT = 0

CCSDS_OMM_VERS = 2.0
CREATION_DATE  = 
ORIGINATOR     = 

OBJECT_NAME    = DEAR-5
OBJECT_ID      = 2025-296B
CENTER_NAME    = EARTH
REF_FRAME      = TEME
TIME_SYSTEM    = UTC
MEAN_ELEMENT_THEORY = SGP/SGP4

EPOCH          = 2025-12-22T13:52:08.027616
MEAN_MOTION    = 15.16901274
ECCENTRICITY   = .00161138
INCLINATION    = 41.3551
RA_OF_ASC_NODE = 45.4480
ARG_OF_PERICENTER = 97.4680
MEAN_ANOMALY   = 262.7972

EPHEMERIS_TYPE = 0
CLASSIFICATION_TYPE = U
NORAD_CAT_ID   = 67070
ELEMENT_SET_NO = 999
REV_AT_EPOCH   = 144
BSTAR          = .25725453E-3
MEAN_MOTION_DOT = .4981E-4
MEAN_MOTION_DDOT = 0

CCSDS_OMM_VERS = 2.0
CREATION_DATE  = 
ORIGINATOR     = 

OBJECT_NAME    = KZ-11 R/B
OBJECT_ID      = 2025-296C
CENTER_NAME    = EARTH
REF_FRAME      = TEME
TIME_SYSTEM    = UTC
MEAN_ELEMENT_THEORY = SGP/SGP4

EPOCH          = 2025-12-22T14:19:47.548704
MEAN_MOTION    = 15.40866128
ECCENTRICITY   = .04601667
INCLINATION    = 41.3101
RA_OF_ASC_NODE = 47.6253
ARG_OF_PERICENTER = 22.6091
MEAN_ANOMALY   = 339.4322

EPHEMERIS_TYPE = 0
CLASSIFICATION_TYPE = U
NORAD_CAT_ID   = 67071
ELEMENT_SET_NO = 999
REV_AT_EPOCH   = 142
BSTAR          = .47260137E-3
MEAN_MOTION_DOT = .8085331E-1
MEAN_MOTION_DDOT = .7163122E-5

CCSDS_OMM_VERS = 2.0
CREATION_DATE  = 
ORIGINATOR     = 

OBJECT_NAME    = ELECTRON R/B
OBJECT_ID      = 2025-297A
CENTER_NAME    = EARTH
REF_FRAME      = TEME
TIME_SYSTEM    = UTC
MEAN_ELEMENT_THEORY = SGP/SGP4

EPOCH          = 2025-12-22T13:14:21.086016
MEAN_MOTION    = 16.09855083
ECCENTRICITY   = .01273077
INCLINATION    = 97.4567
RA_OF_ASC_NODE = 144.8475
ARG_OF_PERICENTER = 197.5366
MEAN_ANOMALY   = 162.1504

EPHEMERIS_TYPE = 0
CLASSIFICATION_TYPE = U
NORAD_CAT_ID   = 67072
ELEMENT_SET_NO = 999
REV_AT_EPOCH   = 134
BSTAR          = .13451925E-2
MEAN_MOTION_DOT = .4510731E-1
MEAN_MOTION_DDOT = .2157609E-5

CCSDS_OMM_VERS = 2.0
CREATION_DATE  = 
ORIGINATOR     = 

OBJECT_NAME    = RAISE-4
OBJECT_ID      = 2025-297B
CENTER_NAME    = EARTH
REF_FRAME      = TEME
TIME_SYSTEM    = UTC
MEAN_ELEMENT_THEORY = SGP/SGP4

EPOCH          = 2025-12-22T09:24:49.575744
MEAN_MOTION    = 15.07201816
ECCENTRICITY   = .00114656
INCLINATION    = 97.4855
RA_OF_ASC_NODE = 143.6813
ARG_OF_PERICENTER = 284.9049
MEAN_ANOMALY   = 75.0909

EPHEMERIS_TYPE = 0
CLASSIFICATION_TYPE = U
NORAD_CAT_ID   = 67073
ELEMENT_SET_NO = 999
REV_AT_EPOCH   = 124
BSTAR          = .28979193E-3
MEAN_MOTION_DOT = .4308E-4
MEAN_MOTION_DDOT = 0

