HULIANWANG DIGUI-122    
1 67062U 25295D   25356.51560365  .00000008  00000+0  70245-4 0  9995
2 67062  50.0053 330.9585 0013164 287.8083  72.1394 14.25756870  1518
HULIANWANG DIGUI-123    
1 67063U 25295E   25356.44454150  .00000029  00000+0  78855-4 0  9990
2 67063  50.0059 331.2518 0012474 286.7560  73.1985 14.25889752  1508
HULIANWANG DIGUI-124    
1 67064U 25295F   25356.23385528 -.00000684  00000+0 -21790-3 0  9994
2 67064  50.0035 332.1235 0012142 280.5756  79.3790 14.25948838  1479
HULIANWANG DIGUI-125    
1 67065U 25295G   25356.44406272  .00000019  00000+0  74486-4 0  9999
2 67065  50.0010 331.2331 0012264 287.4832  72.4742 14.25955320  1505
HULIANWANG DIGUI-126    
1 67066U 25295H   25356.44299801  .00000018  00000+0  74113-4 0  9994
2 67066  50.0013 331.2267 0011424 284.6137  75.3510 14.26098288  1508
HULIANWANG DIGUI-127    
1 67067U 25295J   25356.44197040 -.00000874  00000+0 -29542-3 0  9994
2 67067  50.0053 331.2291 0010850 288.5786  71.3949 14.26251076  1503
CZ-12 R/B               
1 67068U 25295K   25356.26512939 -.00000141  00000+0  82949-5 0  9991
2 67068  49.9943 330.9614 0056875 170.0480 190.1581 14.41129057  1486
XIWANG-5 02             
1 67069U 25296A   25356.57872897  .00012532  00000+0  63198-3 0  9998
2 67069  41.3524  45.4520 0014504  96.0843 264.1632 15.16868050  1457
DEAR-5                  
1 67070U 25296B   25356.57787069  .00004981  00000+0  25725-3 0  9999
2 67070  41.3551  45.4480 0016113  97.4680 262.7972 15.16901274  1442
KZ-11 R/B               
1 67071U 25296C   25356.59707811  .08085331  71631-5  47260-3 0  9997
2 67071  41.3101  47.6253 0460166  22.6091 339.4322 15.40866128  1427
ELECTRON R/B            
1 67072U 25297A   25356.55163294  .04510731  21576-5  13452-2 0  9997
2 67072  97.4567 144.8475 0127307 197.5366 162.1504 16.09855083  1344
RAISE-4                 
1 67073U 25297B   25356.39224046  .00004308  00000+0  28979-3 0  9991
2 67073  97.4855 143.6813 0011465 284.9049  75.0909 15.07201816  1240
